OBJECT_NAME,OBJECT_ID,EPOCH,MEAN_MOTION,ECCENTRICITY,INCLINATION,RA_OF_ASC_NODE,ARG_OF_PERICENTER,MEAN_ANOMALY,EPHEMERIS_TYPE,CLASSIFICATION_TYPE,NORAD_CAT_ID,ELEMENT_SET_NO,REV_AT_EPOCH,BSTAR,MEAN_MOTION_DOT,MEAN_MOTION_DDOT
STARLINK-37701,2026-119L,2026-06-16T20:00:01.999008,15.70743803,.0001436,97.2842,193.6562,74.9690,313.3876,0,U,69306,999,398,-.23932E-1,-.2577148E-1,0
STARLINK-37732,2026-119M,2026-06-16T20:00:01.999008,15.76868630,.0001551,97.2841,193.6718,76.7027,346.7127,0,U,69307,999,398,-.186E-1,-.2546885E-1,0
STARLINK-37689,2026-119N,2026-06-16T20:00:01.999008,15.49154836,.0000812,97.2845,193.4989,57.3754,323.2218,0,U,69308,999,398,.48293E-3,.26231E-3,0
STARLINK-37619,2026-119P,2026-06-16T20:00:01.999008,15.74491462,.0001681,97.2843,193.6725,72.4039,353.0701,0,U,69309,999,398,-.20515E-1,-.2591776E-1,0
STARLINK-37794,2026-119Q,2026-06-16T20:00:01.999008,15.61141603,.0001653,97.2836,193.6312,98.1510,224.0516,0,U,69310,999,398,-.32135E-1,-.2376741E-1,0
STARLINK-37795,2026-119R,2026-06-16T20:00:01.999008,15.49169837,.0000783,97.2845,193.5113,63.3234,342.7128,0,U,69311,999,398,.52206E-3,.28386E-3,0
STARLINK-37790,2026-119S,2026-06-16T20:00:01.999008,15.68902594,.000141,97.2847,193.6646,98.1422,309.5426,0,U,69312,999,399,-.25546E-1,-.2551335E-1,0
STARLINK-37676,2026-119T,2026-06-16T21:04:05.664576,15.78096894,.0000706,97.2835,193.7380,70.8725,289.2618,0,U,69313,999,399,-.76148E-2,-.1152192E-1,0
STARLINK-37617,2026-119U,2026-06-16T20:00:01.999008,15.66667716,.0001163,97.2847,193.6695,101.9700,311.5315,0,U,69314,999,399,-.17529E-1,-.1625406E-1,0
STARLINK-37627,2026-119V,2026-06-14T18:53:32.152416,15.80230891,.00014259,97.2817,191.5290,72.4250,287.7173,0,U,69315,999,366,-.32968523E-2,-.576083E-2,0
STARLINK-37738,2026-119W,2026-06-16T20:00:01.999008,15.67265058,.0001313,97.2848,193.6641,78.8539,328.0467,0,U,69316,999,399,-.2057E-1,-.1949473E-1,0
STARLINK-37799,2026-119X,2026-06-16T19:31:39.487008,15.79613069,.0001532,97.2837,193.6715,44.9222,315.2170,0,U,69317,999,273,-.56385E-2,-.920562E-2,0
STARLINK-37802,2026-119Y,2026-06-16T20:00:01.999008,15.74317368,.0001687,97.2849,193.6919,66.6708,43.6393,0,U,69318,999,399,-.13224E-1,-.1682872E-1,0
STARLINK-37803,2026-119Z,2026-06-16T20:00:01.999008,15.58917697,.0001714,97.2841,193.6327,92.1407,231.1277,0,U,69319,999,394,-.2334E-1,-.1600176E-1,0
GUOWANG TEST OBJECT A,2026-120A,2026-06-07T11:06:12.288672,15.38803685,.00095994,54.9967,71.5399,294.3963,65.6063,0,U,69320,999,119,.24095813E-3,.9002E-4,0
GUOWANG TEST OBJECT B,2026-120B,2026-06-16T21:05:31.503840,15.38701487,.0010083,54.9984,29.1242,329.8046,30.2399,0,U,69321,999,264,.23821E-3,.8865E-4,0
GUOWANG TEST OBJECT C,2026-120C,2026-06-07T21:56:00.773376,15.39284097,.00098504,54.9968,69.4792,309.3319,50.6835,0,U,69322,999,126,.41735581E-3,.16153E-3,0
GUOWANG TEST OBJECT D,2026-120D,2026-06-16T08:31:26.352768,15.39015221,.00111128,54.9990,31.4391,342.7076,17.3573,0,U,69323,999,256,.57263237E-4,.1852E-4,0
QIANFAN-163,2026-121A,2026-06-16T20:35:17.129760,13.59758171,.0020016,89.0144,300.5483,189.9432,170.1331,0,U,69325,999,211,-.3752E-5,.9E-7,0
QIANFAN-164,2026-121B,2026-06-11T09:53:52.001952,13.60355109,.0019383,89.0157,301.0998,205.3125,154.7084,0,U,69326,999,137,.13228E-3,.112E-5,0
SZ-22 MODULE,2025-272C,2026-06-16T20:32:16.971072,15.60203853,.0006297,41.4806,324.1231,83.9376,276.2180,0,U,69328,999,327,.22051E-3,.18201E-3,0
STARLINK-37733,2026-122A,2026-06-16T18:48:29.684160,15.80840443,.0000606,97.2829,197.2011,49.8574,310.2747,0,U,69329,999,209,.45876E-3,.88728E-3,0
STARLINK-37772,2026-122B,2026-06-16T20:12:05.579136,15.80869818,.0001084,97.2829,197.2756,80.5672,279.5719,0,U,69330,999,210,.76315E-3,.148923E-2,0
STARLINK-37768,2026-122C,2026-06-16T20:00:01.999008,15.76888015,.0001432,97.2834,197.2698,80.7318,236.0908,0,U,69331,999,324,-.17646E-1,-.2437429E-1,0
STARLINK-37833,2026-122D,2026-06-16T20:08:59.806176,15.80854499,.0000885,97.2829,197.2787,82.5764,277.5604,0,U,69332,999,210,.61207E-3,.118915E-2,0
STARLINK-37818,2026-122E,2026-06-16T20:11:47.080896,15.80902039,.0001287,97.2826,197.2763,83.8283,276.3132,0,U,69333,999,210,.98738E-3,.194014E-2,0
STARLINK-37868,2026-122F,2026-06-16T20:00:01.999008,15.80761189,.0000842,97.2841,197.2877,69.4887,286.4850,0,U,69334,999,329,.18055E-3,.3449E-3,0
STARLINK-37877,2026-122G,2026-06-16T20:00:01.999008,15.74006516,.0001369,97.2839,197.2790,85.1470,256.0336,0,U,69335,999,329,-.20453E-1,-.2480582E-1,0
STARLINK-37791,2026-122H,2026-06-16T20:00:01.999008,15.81233225,.0000711,97.2832,197.2906,46.6437,318.7651,0,U,69336,999,329,-.72619E-2,-.125465E-1,0
