STARLINK-37701          
1 69306U 26119L   26167.83335647 -.02577148  00000+0 -23932-1 0  9999
2 69306  97.2842 193.6562 0001436  74.9690 313.3876 15.70743803  3988
STARLINK-37732          
1 69307U 26119M   26167.83335647 -.02546885  00000+0 -18600-1 0  9990
2 69307  97.2841 193.6718 0001551  76.7027 346.7127 15.76868630  3984
STARLINK-37689          
1 69308U 26119N   26167.83335647  .00026231  00000+0  48293-3 0  9998
2 69308  97.2845 193.4989 0000812  57.3754 323.2218 15.49154836  3985
STARLINK-37619          
1 69309U 26119P   26167.83335647 -.02591776  00000+0 -20515-1 0  9999
2 69309  97.2843 193.6725 0001681  72.4039 353.0701 15.74491462  3988
STARLINK-37794          
1 69310U 26119Q   26167.83335647 -.02376741  00000+0 -32135-1 0  9995
2 69310  97.2836 193.6312 0001653  98.1510 224.0516 15.61141603  3988
STARLINK-37795          
1 69311U 26119R   26167.83335647  .00028386  00000+0  52206-3 0  9994
2 69311  97.2845 193.5113 0000783  63.3234 342.7128 15.49169837  3989
STARLINK-37790          
1 69312U 26119S   26167.83335647 -.02551335  00000+0 -25546-1 0  9999
2 69312  97.2847 193.6646 0001410  98.1422 309.5426 15.68902594  3996
STARLINK-37676          
1 69313U 26119T   26167.87784334 -.01152192  00000+0 -76148-2 0  9997
2 69313  97.2835 193.7380 0000706  70.8725 289.2618 15.78096894  3995
STARLINK-37617          
1 69314U 26119U   26167.83335647 -.01625406  00000+0 -17529-1 0  9993
2 69314  97.2847 193.6695 0001163 101.9700 311.5315 15.66667716  3991
STARLINK-37627          
1 69315U 26119V   26165.78717769 -.00576083  00000+0 -32969-2 0  9996
2 69315  97.2817 191.5290 0001425  72.4250 287.7173 15.80230891  3666
STARLINK-37738          
1 69316U 26119W   26167.83335647 -.01949473  00000+0 -20570-1 0  9998
2 69316  97.2848 193.6641 0001313  78.8539 328.0467 15.67265058  3999
STARLINK-37799          
1 69317U 26119X   26167.81365147 -.00920562  00000+0 -56385-2 0  9996
2 69317  97.2837 193.6715 0001532  44.9222 315.2170 15.79613069  2738
STARLINK-37802          
1 69318U 26119Y   26167.83335647 -.01682872  00000+0 -13224-1 0  9995
2 69318  97.2849 193.6919 0001687  66.6708  43.6393 15.74317368  3995
STARLINK-37803          
1 69319U 26119Z   26167.83335647 -.01600176  00000+0 -23340-1 0  9993
2 69319  97.2841 193.6327 0001714  92.1407 231.1277 15.58917697  3945
GUOWANG TEST OBJECT A   
1 69320U 26120A   26158.46264223  .00009002  00000+0  24096-3 0  9996
2 69320  54.9967  71.5399 0009599 294.3963  65.6063 15.38803685  1198
GUOWANG TEST OBJECT B   
1 69321U 26120B   26167.87883685  .00008865  00000+0  23821-3 0  9992
2 69321  54.9984  29.1242 0010083 329.8046  30.2399 15.38701487  2648
GUOWANG TEST OBJECT C   
1 69322U 26120C   26158.91389784  .00016153  00000+0  41736-3 0  9993
2 69322  54.9968  69.4792 0009850 309.3319  50.6835 15.39284097  1266
GUOWANG TEST OBJECT D   
1 69323U 26120D   26167.35516612  .00001852  00000+0  57263-4 0  9997
2 69323  54.9990  31.4391 0011112 342.7076  17.3573 15.39015221  2565
QIANFAN-163             
1 69325U 26121A   26167.85783715  .00000009  00000+0 -37520-5 0  9994
2 69325  89.0144 300.5483 0020016 189.9432 170.1331 13.59758171  2118
QIANFAN-164             
1 69326U 26121B   26162.41240743  .00000112  00000+0  13228-3 0  9992
2 69326  89.0157 301.0998 0019383 205.3125 154.7084 13.60355109  1373
SZ-22 MODULE            
1 69328U 25272C   26167.85575198  .00018201  00000+0  22051-3 0  9990
2 69328  41.4806 324.1231 0006297  83.9376 276.2180 15.60203853  3270
STARLINK-37733          
1 69329U 26122A   26167.78367690  .00088728  00000+0  45876-3 0  9995
2 69329  97.2829 197.2011 0000606  49.8574 310.2747 15.80840443  2090
STARLINK-37772          
1 69330U 26122B   26167.84173124  .00148923  00000+0  76315-3 0  9997
2 69330  97.2829 197.2756 0001084  80.5672 279.5719 15.80869818  2105
STARLINK-37768          
1 69331U 26122C   26167.83335647 -.02437429  00000+0 -17646-1 0  9993
2 69331  97.2834 197.2698 0001432  80.7318 236.0908 15.76888015  3242
STARLINK-37833          
1 69332U 26122D   26167.83958109  .00118915  00000+0  61207-3 0  9994
2 69332  97.2829 197.2787 0000885  82.5764 277.5604 15.80854499  2103
STARLINK-37818          
1 69333U 26122E   26167.84151714  .00194014  00000+0  98738-3 0  9996
2 69333  97.2826 197.2763 0001287  83.8283 276.3132 15.80902039  2109
STARLINK-37868          
1 69334U 26122F   26167.83335647  .00034490  00000+0  18055-3 0  9990
2 69334  97.2841 197.2877 0000842  69.4887 286.4850 15.80761189  3298
STARLINK-37877          
1 69335U 26122G   26167.83335647 -.02480582  00000+0 -20453-1 0  9995
2 69335  97.2839 197.2790 0001369  85.1470 256.0336 15.74006516  3299
STARLINK-37791          
1 69336U 26122H   26167.83335647 -.01254650  00000+0 -72619-2 0  9992
2 69336  97.2832 197.2906 0000711  46.6437 318.7651 15.81233225  3290
